INTELSAT 902 (IS-902)   
1 26900U 01039A   26159.54761701 -.00000268  00000+0  00000+0 0  9999
2 26900   6.0966  71.8876 0004348 359.0794 332.9916  1.00270294 90602
INTELSAT 904 (IS-904)   
1 27380U 02007A   26159.27266770 -.00000211  00000+0  00000+0 0  9992
2 27380   6.8970  69.2902 0006735   2.5539 251.4763  1.00271520 51670
DIRECTV 5 (TEMPO 1)     
1 27426U 02023A   26159.62666436 -.00000042  00000+0  00000+0 0  9995
2 27426   4.8550  75.4161 0003365  12.2530 284.8416  1.00271594 88030
INTELSAT 905 (IS-905)   
1 27438U 02027A   26159.60380081  .00000109  00000+0  00000+0 0  9992
2 27438   6.7311  69.9025 0003954  14.5648 252.6814  1.00269870 51270
GALAXY 3C (G-3C)        
1 27445U 02030A   26159.38432053 -.00000137  00000+0  00000+0 0  9998
2 27445   3.7072  78.0941 0001798  31.3144 190.8728  1.00271437 46407
INTELSAT 906 (IS-906)   
1 27513U 02041A   26159.85915186  .00000029  00000+0  00000+0 0  9990
2 27513   5.7826  73.0225 0004655 358.6548 198.9897  1.00271237 86947
GALAXY 13 (HORIZONS-1)  
1 27954U 03044A   26159.74177779  .00000149  00000+0  00000+0 0  9992
2 27954   1.3984  83.9612 0002096 349.5613 300.6341  1.00273429 46488
INTELSAT 10-02          
1 28358U 04022A   26159.77127936  .00000004  00000+0  00000+0 0  9991
2 28358   0.0135 337.4063 0000802 189.2107   7.1926  1.00264008 80476
DIRECTV 8               
1 28659U 05019A   26159.63029051  .00000017  00000+0  00000+0 0  9990
2 28659   0.0177   6.4882 0002963  74.8027 283.5844  1.00271578 76988
GALAXY 28 (G-28)        
1 28702U 05022A   26159.76616602 -.00000184  00000+0  00000+0 0  9997
2 28702   3.2779  79.0339 0002827 354.2539  72.5774  1.00272427 51890
GALAXY 16 (G-16)        
1 29236U 06023A   26159.68062671 -.00000111  00000+0  00000+0 0  9994
2 29236   0.0318 127.4884 0002628 312.4758 323.1331  1.00271572 72884
DIRECTV 9S              
1 29494U 06043A   26159.68019338 -.00000097  00000+0  00000+0 0  9997
2 29494   2.3978  81.0047 0005039   7.0974 312.6506  1.00271449 51291
GALAXY 17 (G-17)        
1 31307U 07016B   26159.54077032 -.00000190  00000+0  00000+0 0  9998
2 31307   2.9493  80.0093 0004865  15.9250 270.6836  1.00271626 69718
INTELSAT 11 (IS-11)     
1 32253U 07044B   26159.73250441 -.00000232  00000+0  00000+0 0  9995
2 32253   3.5425  78.7715 0001897  83.4120 161.6124  0.99053663 68369
HORIZONS-2              
1 32388U 07063B   26159.54302366 -.00000238  00000+0  00000+0 0  9994
2 32388   2.5788  80.7319 0003994 355.5479 302.3737  1.00271861 67720
DIRECTV 11              
1 32729U 08013A   26159.62266286 -.00000109  00000+0  00000+0 0  9995
2 32729   0.0377 169.2785 0000577 205.2448   7.4676  1.00267856 45503
GALAXY 18 (G-18)        
1 32951U 08024A   26159.74715116  .00000041  00000+0  00000+0 0  9992
2 32951   0.0121 290.7892 0003171 158.8298 313.4892  1.00272198 45768
INTELSAT 25 (IS-25)     
1 33153U 08034A   26159.73172441 -.00000244  00000+0  00000+0 0  9991
2 33153   2.6856  80.4307 0001904  35.1716 204.1930  0.99020473 65603
GALAXY 19 (G-19)        
1 33376U 08045A   26159.68097338 -.00000123  00000+0  00000+0 0  9991
2 33376   0.0290  93.5432 0002733 342.6783 329.0093  1.00271778 64817
FM-5                    
1 35493U 09034A   26159.61188203 -.00000184  00000+0  00000+0 0  9994
2 35493   0.0201 286.6614 0000736  29.4159  75.0571  1.00271982 46553
INTELSAT 14 (IS-14)     
1 36097U 09064A   26159.76261266 -.00000257  00000+0  00000+0 0  9996
2 36097   0.0158 340.7007 0002786 113.4897  32.5084  1.00270700 60520
INTELSAT 15 (IS-15)     
1 36106U 09067A   26159.76179228 -.00000169  00000+0  00000+0 0  9998
2 36106   0.0143 337.4803 0002271 103.2470 175.8187  1.00271344 41142
DIRECTV 12              
1 36131U 09075A   26159.67984670 -.00000087  00000+0  00000+0 0  9999
2 36131   0.0327 123.6340 0000477 267.2787   8.1772  1.00267844 46461
INTELSAT 16 (IS-16)     
1 36397U 10006A   26159.54250366 -.00000229  00000+0  00000+0 0  9991
2 36397   0.0107 315.2101 0002161 139.9010 280.9343  1.00269999 59563
XM-5                    
1 37185U 10053A   26159.67742002 -.00000007  00000+0  00000+0 0  9990
2 37185   0.0678 272.6470 0002734 284.0452 189.0570  1.00270993 57391
INTELSAT 17 (IS-17)     
1 37238U 10065B   26159.86116671  .00000015  00000+0  00000+0 0  9998
2 37238   0.0049 116.6755 0002559 332.5883 183.9986  1.00272519 53168
INTELSAT 28 (IS-28)     
1 37392U 11016A   26159.69392022 -.00000209  00000+0  00000+0 0  9999
2 37392   1.7832  82.7273 0003860 354.9566  37.4968  1.00268529 53201
INTELSAT 18 (IS-18)     
1 37834U 11056A   26159.66459330  .00000069  00000+0  00000+0 0  9990
2 37834   0.0019 353.9956 0002042 101.1971 221.1195  1.00272128 53726
INTELSAT 22 (IS-22)     
1 38098U 12011A   26159.86559880 -.00000043  00000+0  00000+0 0  9991
2 38098   0.0255  67.2185 0001614   2.0611 211.6908  1.00273396  7109
INTELSAT 19 (IS-19)     
1 38356U 12030A   26159.73311109 -.00000040  00000+0  00000+0 0  9992
2 38356   0.0176 328.0906 0003072 117.0847 241.8684  1.00271997 50362
INTELSAT 20 (IS-20)     
1 38740U 12043A   26159.86227287 -.00000010  00000+0  00000+0 0  9997
2 38740   0.0056  81.1388 0001755  80.5850 114.4471  1.00279459 50664
