OBJECT_NAME,OBJECT_ID,EPOCH,MEAN_MOTION,ECCENTRICITY,INCLINATION,RA_OF_ASC_NODE,ARG_OF_PERICENTER,MEAN_ANOMALY,EPHEMERIS_TYPE,CLASSIFICATION_TYPE,NORAD_CAT_ID,ELEMENT_SET_NO,REV_AT_EPOCH,BSTAR,MEAN_MOTION_DOT,MEAN_MOTION_DDOT
INTELSAT 902 (IS-902),2001-039A,2026-06-08T13:08:34.109664,1.00270294,.00043487,6.0966,71.8876,359.0794,332.9916,0,U,26900,999,9060,0,-.268E-5,0
INTELSAT 904 (IS-904),2002-007A,2026-06-08T06:32:38.489280,1.00271520,.00067358,6.8970,69.2902,2.5539,251.4763,0,U,27380,999,5167,0,-.211E-5,0
DIRECTV 5 (TEMPO 1),2002-023A,2026-06-08T15:02:23.800704,1.00271594,.0003365,4.8550,75.4161,12.2530,284.8416,0,U,27426,999,8803,0,-.42E-6,0
INTELSAT 905 (IS-905),2002-027A,2026-06-08T14:29:28.389984,1.00269870,.0003954,6.7311,69.9025,14.5648,252.6814,0,U,27438,999,5127,0,.109E-5,0
GALAXY 3C (G-3C),2002-030A,2026-06-08T09:13:25.293792,1.00271437,.00017988,3.7072,78.0941,31.3144,190.8728,0,U,27445,999,4640,0,-.137E-5,0
INTELSAT 906 (IS-906),2002-041A,2026-06-08T20:37:10.720704,1.00271237,.0004655,5.7826,73.0225,358.6548,198.9897,0,U,27513,999,8694,0,.29E-6,0
GALAXY 13 (HORIZONS-1),2003-044A,2026-06-08T17:48:09.601056,1.00273429,.0002096,1.3984,83.9612,349.5613,300.6341,0,U,27954,999,4648,0,.149E-5,0
INTELSAT 10-02,2004-022A,2026-06-08T18:30:38.536704,1.00264008,.0000802,0.0135,337.4063,189.2107,7.1926,0,U,28358,999,8047,0,.4E-7,0
DIRECTV 8,2005-019A,2026-06-08T15:07:37.100064,1.00271578,.0002963,0.0177,6.4882,74.8027,283.5844,0,U,28659,999,7698,0,.17E-6,0
GALAXY 28 (G-28),2005-022A,2026-06-08T18:23:16.744128,1.00272427,.0002827,3.2779,79.0339,354.2539,72.5774,0,U,28702,999,5189,0,-.184E-5,0
GALAXY 16 (G-16),2006-023A,2026-06-08T16:20:06.147744,1.00271572,.0002628,0.0318,127.4884,312.4758,323.1331,0,U,29236,999,7288,0,-.111E-5,0
DIRECTV 9S,2006-043A,2026-06-08T16:19:28.708032,1.00271449,.0005039,2.3978,81.0047,7.0974,312.6506,0,U,29494,999,5129,0,-.97E-6,0
GALAXY 17 (G-17),2007-016B,2026-06-08T12:58:42.555648,1.00271626,.00048654,2.9493,80.0093,15.9250,270.6836,0,U,31307,999,6971,0,-.19E-5,0
INTELSAT 11 (IS-11),2007-044B,2026-06-08T17:34:48.381024,0.99053663,.0001897,3.5425,78.7715,83.4120,161.6124,0,U,32253,999,6836,0,-.232E-5,0
HORIZONS-2,2007-063B,2026-06-08T13:01:57.244224,1.00271861,.00039942,2.5788,80.7319,355.5479,302.3737,0,U,32388,999,6772,0,-.238E-5,0
DIRECTV 11,2008-013A,2026-06-08T14:56:38.071104,1.00267856,.0000577,0.0377,169.2785,205.2448,7.4676,0,U,32729,999,4550,0,-.109E-5,0
GALAXY 18 (G-18),2008-024A,2026-06-08T17:55:53.860224,1.00272198,.0003171,0.0121,290.7892,158.8298,313.4892,0,U,32951,999,4576,0,.41E-6,0
INTELSAT 25 (IS-25),2008-034A,2026-06-08T17:33:40.989024,0.99020473,.0001904,2.6856,80.4307,35.1716,204.1930,0,U,33153,999,6560,0,-.244E-5,0
GALAXY 19 (G-19),2008-045A,2026-06-08T16:20:36.100032,1.00271778,.0002733,0.0290,93.5432,342.6783,329.0093,0,U,33376,999,6481,0,-.123E-5,0
FM-5,2009-034A,2026-06-08T14:41:06.607392,1.00271982,.0000736,0.0201,286.6614,29.4159,75.0571,0,U,35493,999,4655,0,-.184E-5,0
INTELSAT 14 (IS-14),2009-064A,2026-06-08T18:18:09.733824,1.00270700,.0002786,0.0158,340.7007,113.4897,32.5084,0,U,36097,999,6052,0,-.257E-5,0
INTELSAT 15 (IS-15),2009-067A,2026-06-08T18:16:58.852992,1.00271344,.0002271,0.0143,337.4803,103.2470,175.8187,0,U,36106,999,4114,0,-.169E-5,0
DIRECTV 12,2009-075A,2026-06-08T16:18:58.754880,1.00267844,.0000477,0.0327,123.6340,267.2787,8.1772,0,U,36131,999,4646,0,-.87E-6,0
INTELSAT 16 (IS-16),2010-006A,2026-06-08T13:01:12.316224,1.00269999,.00021617,0.0107,315.2101,139.9010,280.9343,0,U,36397,999,5956,0,-.229E-5,0
XM-5,2010-053A,2026-06-08T16:15:29.089728,1.00270993,.0002734,0.0678,272.6470,284.0452,189.0570,0,U,37185,999,5739,0,-.7E-7,0
INTELSAT 17 (IS-17),2010-065B,2026-06-08T20:40:04.803744,1.00272519,.0002559,0.0049,116.6755,332.5883,183.9986,0,U,37238,999,5316,0,.15E-6,0
INTELSAT 28 (IS-28),2011-016A,2026-06-08T16:39:14.707008,1.00268529,.000386,1.7832,82.7273,354.9566,37.4968,0,U,37392,999,5320,0,-.209E-5,0
INTELSAT 18 (IS-18),2011-056A,2026-06-08T15:57:00.861120,1.00272128,.0002042,0.0019,353.9956,101.1971,221.1195,0,U,37834,999,5372,0,.69E-6,0
INTELSAT 22 (IS-22),2012-011A,2026-06-08T20:46:27.736320,1.00273396,.0001614,0.0255,67.2185,2.0611,211.6908,0,U,38098,999,710,0,-.43E-6,0
INTELSAT 19 (IS-19),2012-030A,2026-06-08T17:35:40.798176,1.00271997,.0003072,0.0176,328.0906,117.0847,241.8684,0,U,38356,999,5036,0,-.4E-6,0
INTELSAT 20 (IS-20),2012-043A,2026-06-08T20:41:40.375968,1.00279459,.0001755,0.0056,81.1388,80.5850,114.4471,0,U,38740,999,5066,0,-.1E-6,0
